FENGYUN 1C DEB          
1 29842U 99025EL  17345.90878481  .00000595  00000-0  17746-3 0  9992
2 29842  98.7081 322.5118 0144373 314.7074 105.9461 14.41169160571372
